0 THORAD DELTA 1 DEB
1 17023U 74089EW  13279.57761699  .00000031  00000-0  40782-3 0  2242
2 17023 101.2989 318.1234 0053274 217.3375 297.8483 12.63544738323356
0 THORAD DELTA 1 DEB
1 17023U 74089EW  13282.32773271  .00000061  00000-0  57294-3 0  2258
2 17023 101.2988 320.7916 0053343 211.8995 207.4009 12.63545215323706
0 THORAD DELTA 1 DEB
1 17023U 74089EW  13285.64010073  .00000061  00000-0  57294-3 0  2261
2 17023 101.2988 324.0044 0053343 205.2687 154.5781 12.63545908324125
0 THORAD DELTA 1 DEB
1 17023U 74089EW  13287.64635760  .00000106  00000-0  81860-3 0  2276
2 17023 101.2974 325.9523 0053493 201.4264 280.3945 12.63546564324373
0 THORAD DELTA 1 DEB
1 17023U 74089EW  13290.65490634  .00000085  00000-0  69981-3 0  2287
2 17023 101.2969 328.8711 0053539 195.5226 285.4651 12.63547782324755
0 THORAD DELTA 1 DEB
1 17023U 74089EW  13293.09595986  .00000083  00000-0  69173-3 0  2296
2 17023 101.2966 331.2390 0053563 190.7307 229.1646 12.63548411325061
